satname,norad_id,inclination_deg,eccentricity,mean_motion_rev_per_day,perigee_km,apogee_km,l1,l2
STARLINK-1482,45773,53.0552,0.0001384,15.06397508,546.2607262724259,548.1776648673595,1 45773U 20038AV  25363.72278265 -.00001587  00000+0 -87649-4 0  9997,2 45773  53.0552 150.7092 0001384  88.8342 271.2805 15.06397508306212
STARLINK-1496,45780,53.0535,9.46e-05,15.33283396,465.3765788804376,466.6714941485461,1 45780U 20038BC  25363.91670139  .01578544  00000+0  44055-1 0  9994,2 45780  53.0535 148.5073 0000946 133.4732 344.3723 15.33283396  5832
STARLINK-1497,45781,53.0323,0.0004303,15.75064441,341.5550850652435,347.34054155557897,1 45781U 20038BD  25363.91670139  .00264438  00000+0  16879-2 0  9992,2 45781  53.0323  70.8984 0004303   9.4344 190.7820 15.75064441  5967
STARLINK-1510,45784,53.0183,0.0007213,16.07740274,248.26649906211787,257.83264881367995,1 45784U 20038BG  25363.60176779  .00809061  35792-3  96945-3 0  9992,2 45784  53.0183  39.2020 0007213  19.3660 340.7645 16.07740274307764
STARLINK-1513,45786,53.0572,0.0001412,15.06399742,546.2344893431991,548.1902079992633,1 45786U 20038BJ  25363.65275257  .00000722  00000+0  67345-4 0  9990,2 45786  53.0572 151.0260 0001412  87.9138 272.2013 15.06399742306207
STARLINK-1522,46027,53.057,0.0001422,15.06387246,546.2658572637001,548.2354375106161,1 46027U 20055A   25363.50071120 -.00002826  00000+0 -17094-3 0  9999,2 46027  53.0570  81.7086 0001422 100.4813 259.6336 15.06387246298305
STARLINK-1523,46028,53.0555,8.69e-05,15.06383338,546.6608078117961,547.8644422666275,1 46028U 20055B   25363.51545541 -.00001390  00000+0 -74487-4 0  9999,2 46028  53.0555  81.6451 0000869  87.0890 273.0198 15.06383338298329
STARLINK-1526,46029,53.0554,0.0001431,15.06401272,546.2166426234562,548.1986762649894,1 46029U 20055C   25363.50806910  .00004587  00000+0  32664-3 0  9998,2 46029  53.0554  81.6746 0001431  84.6360 275.4792 15.06401272298310
STARLINK-1555,46032,53.0565,0.0001441,15.06395453,546.227549138076,548.2234386088103,1 46032U 20055F   25363.49333120 -.00000676  00000+0 -26513-4 0  9992,2 46032  53.0565  81.7413 0001441  90.6269 269.4885 15.06395453298313
STARLINK-1556,46033,53.0567,0.0001596,15.06387803,546.1436486427556,548.35423183488,1 46033U 20055G   25363.47489117 -.00006468  00000+0 -41582-3 0  9996,2 46033  53.0567  81.8257 0001596  84.5147 275.6024 15.06387803298281
STARLINK-1557,46034,53.0561,0.0001177,15.06386814,546.4368531420023,548.0670897058762,1 46034U 20055H   25363.47858779  .00001255  00000+0  10315-3 0  9998,2 46034  53.0561  81.8076 0001177  90.1065 270.0059 15.06386814298280
STARLINK-1558,46035,53.0547,0.0001565,15.06398245,546.133118874629,548.300754656836,1 46035U 20055J   25363.48595441 -.00001224  00000+0 -63259-4 0  9998,2 46035  53.0547  81.7771 0001565 142.8055 217.3043 15.06398245298313
STARLINK-1560,46036,53.0545,0.0001347,15.06385885,546.3219684401583,548.1876689961218,1 46036U 20055K   25363.47121515 -.00003467  00000+0 -21402-3 0  9999,2 46036  53.0545  81.8442 0001347  84.0378 276.0765 15.06385885298310
STARLINK-1567,46038,53.0554,0.0001201,15.06390125,546.4100855596434,548.0735615530602,1 46038U 20055M   25363.74767576  .00005148  00000+0  36435-3 0  9992,2 46038  53.0554  80.6006 0001201  72.7816 287.3304 15.06390125298345
STARLINK-1569,46039,53.0545,0.0001519,15.06394768,546.1756304294186,548.279556192867,1 46039U 20055N   25363.48964387  .00001027  00000+0  87812-4 0  9991,2 46039  53.0545  81.7592 0001519  83.8872 276.2290 15.06394768298309
STARLINK-1582,46043,53.0581,0.0001174,15.06390029,546.4290782773278,548.0551572941831,1 46043U 20055S   25363.49701816 -.00001169  00000+0 -59612-4 0  9999,2 46043  53.0581  81.7227 0001174 100.7082 259.4039 15.06390029298308
STARLINK-1591,46045,53.0554,0.0001422,15.06388546,546.2618734641537,548.2314525779175,1 46045U 20055U   25363.45646711 -.00001696  00000+0 -95012-4 0  9998,2 46045  53.0554  81.9081 0001422  75.9213 284.1934 15.06388546298282
STARLINK-1524,46047,53.0561,0.0002038,15.06395359,545.814393036404,548.6371709063351,1 46047U 20055W   25363.47581958  .00000563  00000+0  56695-4 0  9997,2 46047  53.0561  71.8192 0002038  88.9312 271.1910 15.06395359298449
STARLINK-1527,46048,53.0555,0.0001379,15.06390729,546.2849628792474,548.1949818482244,1 46048U 20055X   25363.47213692 -.00001354  00000+0 -72046-4 0  9994,2 46048  53.0555  71.8367 0001379  85.5908 274.5238 15.06390729298422
STARLINK-1540,46051,53.0552,0.0001325,15.0638335,546.3449728148189,548.1802037057087,1 46051U 20055AA  25363.43896590 -.00001442  00000+0 -77964-4 0  9990,2 46051  53.0552  71.9866 0001325  81.9567 278.1573 15.06383350298457
STARLINK-1541,46052,53.0566,0.0001422,15.06395166,546.2415868199632,548.2111601633833,1 46052U 20055AB  25363.49056918 -.00001486  00000+0 -80891-4 0  9990,2 46052  53.0566  71.7534 0001422 111.2782 248.8359 15.06395166298428
STARLINK-1543,46053,53.0575,0.0001597,15.06384717,546.1524128829906,548.3643841732801,1 46053U 20055AC  25363.49426119 -.00000345  00000+0 -42645-5 0  9994,2 46053  53.0575  71.7397 0001597 104.0844 256.0322 15.06384717298452
STARLINK-1548,46054,53.0569,0.0001164,15.06384691,546.4523621820745,548.0645942494039,1 46054U 20055AD  25363.50164464  .00002908  00000+0  21415-3 0  9994,2 46054  53.0569  71.7072 0001164 104.7453 255.3665 15.06384691298452
STARLINK-1554,46055,53.0564,0.0001227,15.06407436,546.3390302913012,548.0385052347092,1 46055U 20055AE  25363.48687303  .00005076  00000+0  35937-3 0  9997,2 46055  53.0564  71.7696 0001227  98.1886 261.9242 15.06407436298453
STARLINK-1564,46058,53.0566,0.0001559,15.06388798,546.1662234749947,548.3255578603039,1 46058U 20055AH  25363.49800212 -.00000603  00000+0 -21587-4 0  9997,2 46058  53.0566  72.1845 0001559 104.0385 256.0778 15.06388798298445
STARLINK-1570,46059,53.0561,0.0001163,15.06393793,546.4251613148908,548.0360018143629,1 46059U 20055AJ  25363.46108518 -.00002184  00000+0 -12777-3 0  9991,2 46059  53.0561  71.8904 0001163  87.4394 272.6728 15.06393793298404
STARLINK-1572,46060,53.0544,0.000152,15.06401905,546.1530673004518,548.2583714871471,1 46060U 20055AK  25363.45739123  .00017985  00000+0  12231-2 0  9991,2 46060  53.0544  71.9029 0001520 135.7561 224.3550 15.06401905298419
STARLINK-1573,46061,53.0555,0.0001281,15.06381311,546.3816931359643,548.1559821115634,1 46061U 20055AL  25363.45372411 -.00001181  00000+0 -60437-4 0  9991,2 46061  53.0555  71.9563 0001281  91.3014 268.8122 15.06381311298448
